OBJECT_NAME,OBJECT_ID,EPOCH,MEAN_MOTION,ECCENTRICITY,INCLINATION,RA_OF_ASC_NODE,ARG_OF_PERICENTER,MEAN_ANOMALY,EPHEMERIS_TYPE,CLASSIFICATION_TYPE,NORAD_CAT_ID,ELEMENT_SET_NO,REV_AT_EPOCH,BSTAR,MEAN_MOTION_DOT,MEAN_MOTION_DDOT
STARLINK-35187,2025-200B,2026-07-20T03:29:44.889216,15.33444921,.0001747,97.2824,268.4094,91.1821,268.9622,0,U,65521,999,4908,.21496814E-3,.6871E-4,0
STARLINK-35188,2025-200C,2026-07-20T10:52:10.801056,15.33444505,.00015655,97.2830,268.7557,93.0669,267.0753,0,U,65522,999,4913,.25325536E-3,.811E-4,0
STARLINK-35078,2025-200D,2026-07-20T04:01:04.320768,15.33450580,.00014422,97.2833,268.5229,83.8012,276.3395,0,U,65523,999,4909,.43573304E-3,.14021E-3,0
STARLINK-35055,2025-200E,2026-07-20T04:08:54.292704,15.33445610,.00015433,97.2830,268.5159,90.1121,270.0298,0,U,65524,999,4909,.25950533E-3,.8312E-4,0
STARLINK-35057,2025-200F,2026-07-20T04:04:59.223360,15.33447517,.00018037,97.2863,268.5271,88.0216,272.1233,0,U,65525,999,4909,.24858287E-3,.7959E-4,0
STARLINK-34674,2025-200G,2026-07-20T03:25:50.101536,15.33442197,.00014461,97.2833,268.4130,78.3289,281.8116,0,U,65526,999,4909,.17614599E-3,.5615E-4,0
STARLINK-35067,2025-200H,2026-07-20T11:07:50.381184,15.33443214,.00003547,97.2849,268.7367,31.3409,328.7854,0,U,65527,999,4912,.2417932E-3,.7738E-4,0
STARLINK-35063,2025-200J,2026-07-20T14:00:01.999872,15.33399335,.00014276,97.2838,268.8798,98.8170,246.0138,0,U,65528,999,578,.25578843E-2,.833E-3,0
STARLINK-35077,2025-200K,2026-07-20T03:45:24.728544,15.33447421,.00014061,97.2858,268.3850,68.5403,291.5989,0,U,65529,999,4908,.35148458E-3,.1129E-3,0
STARLINK-35152,2025-200L,2026-07-20T03:21:55.232640,15.33449380,.00019452,97.2847,268.4153,91.8353,268.3112,0,U,65530,999,4908,.32185831E-3,.10332E-3,0
STARLINK-35064,2025-200M,2026-07-20T03:37:34.679712,15.33463270,.00014183,97.2828,268.4022,76.4312,283.7089,0,U,65531,999,4908,.217995E-3,.6973E-4,0
STARLINK-35170,2025-200N,2026-07-20T10:32:36.255264,15.33453177,.00018052,97.2829,268.7743,98.8959,261.2488,0,U,65532,999,4913,.29567268E-3,.9485E-4,0
STARLINK-35172,2025-200P,2026-07-20T04:24:33.539328,15.33445945,.0001615,97.2834,268.5032,97.6624,262.4802,0,U,65533,999,4909,.13254295E-3,.4206E-4,0
STARLINK-35125,2025-200Q,2026-07-20T10:44:20.719392,15.33448913,.0001298,97.2835,268.7594,100.6279,259.5110,0,U,65534,999,4913,.20060355E-3,.6407E-4,0
STARLINK-35133,2025-200R,2026-07-20T04:12:49.104576,15.33441828,.00017534,97.2829,268.5198,91.9639,268.1805,0,U,65535,999,4909,.16384001E-3,.5218E-4,0
STARLINK-35044,2025-200S,2026-07-20T17:55:01.940736,15.33456337,.0000899,97.2837,269.1194,63.1914,296.9421,0,U,65536,999,4918,.41147E-3,.13237E-3,0
STARLINK-35136,2025-200T,2026-07-20T17:58:56.825184,15.33448359,.0000734,97.2845,269.1088,109.2347,250.8976,0,U,65537,999,4909,.40954E-3,.13171E-3,0
STARLINK-35144,2025-200U,2026-07-20T18:38:06.287424,15.33440589,.0001211,97.2840,269.0776,90.3143,269.8238,0,U,65538,999,4918,.89284E-4,.2808E-4,0
STARLINK-35110,2025-200V,2026-07-20T16:52:23.216736,15.33450046,.0001594,97.2831,269.0285,86.5111,273.6314,0,U,65539,999,4917,.30447E-3,.9769E-4,0
STARLINK-35052,2025-200W,2026-07-20T20:00:01.999008,15.33472792,.0001966,97.2846,269.0769,90.3099,88.6892,0,U,65540,999,583,-.18647E-2,-.59857E-3,0
STARLINK-35087,2025-200X,2026-07-20T17:47:11.859072,15.33455369,.0000819,97.2844,268.9786,94.3901,265.7436,0,U,65541,999,4917,.26393E-3,.8458E-4,0
STARLINK-35100,2025-200Y,2026-07-20T17:15:52.780032,15.33449905,.0000749,97.2862,269.0039,87.4096,272.7233,0,U,65542,999,4917,.22668E-3,.7251E-4,0
STARLINK-35105,2025-200Z,2026-07-20T17:19:47.597088,15.33456102,.0001476,97.2837,269.0001,82.1581,277.9829,0,U,65543,999,4917,.2722E-3,.8726E-4,0
YAOGAN-40 03A,2025-199A,2026-07-20T11:14:49.191360,14.26501416,.00125125,85.9874,25.8450,331.2305,28.8195,0,U,65544,999,4516,.5892679E-4,.161E-5,0
YAOGAN-40 03B,2025-199B,2026-07-20T01:15:40.358880,14.12454933,.00022553,85.9894,29.3355,79.9316,280.2121,0,U,65545,999,4467,.25807993E-4,.67E-6,0
YAOGAN-40 03C,2025-199C,2026-07-20T18:16:00.749856,14.12456539,.0002237,85.9893,29.0149,81.0355,279.1081,0,U,65546,999,4477,.36872E-4,.87E-6,0
GEESAT-5 01,2025-201A,2026-07-20T09:22:16.504320,14.84233810,.00031668,49.9911,245.5972,183.3686,176.7232,0,U,65550,999,4673,.94706733E-4,.574E-5,0
GEESAT-5 02,2025-201B,2026-07-20T10:48:27.508032,14.84245134,.00076082,49.9852,245.0965,94.2379,265.9428,0,U,65551,999,4673,.93544603E-4,.563E-5,0
GEESAT-5 03,2025-201C,2026-07-20T10:37:36.039936,14.84232794,.0010491,49.9859,245.0714,27.2886,332.8601,0,U,65552,999,4673,.95479508E-4,.579E-5,0
GEESAT-5 04,2025-201D,2026-07-20T20:01:59.221344,14.84290237,.000793,49.9849,243.8063,37.6933,322.4560,0,U,65553,999,4678,.91212E-4,.544E-5,0
GEESAT-5 05,2025-201E,2026-07-20T07:13:12.312480,14.84251599,.00106279,49.9808,245.4930,45.1773,315.0027,0,U,65554,999,4671,.93781522E-4,.565E-5,0
GEESAT-5 06,2025-201F,2026-07-20T15:07:10.621056,14.84256203,.0013311,49.9902,244.1707,91.4311,268.8152,0,U,65555,999,4675,.92054E-4,.55E-5,0
GEESAT-5 07,2025-201G,2026-07-20T19:47:05.263008,14.84244318,.0012622,49.9876,243.0891,82.0867,278.1504,0,U,65556,999,4679,.11286E-3,.726E-5,0
GEESAT-5 08,2025-201H,2026-07-20T20:18:02.295360,14.77828215,.0014659,49.9762,240.7732,359.6906,0.4018,0,U,65557,999,4683,.10288E-3,.53E-5,0
GEESAT-5 09,2025-201J,2026-07-20T11:31:20.727264,14.84273607,.00083251,49.9800,244.3851,33.4364,326.7098,0,U,65558,999,4674,.95382264E-4,.579E-5,0
GEESAT-5 10,2025-201K,2026-07-20T08:06:43.455744,14.84255036,.0007165,49.9818,245.0014,51.2010,308.9567,0,U,65559,999,4672,.95522E-4,.58E-5,0
GEESAT-5 11,2025-201L,2026-07-20T11:10:08.895936,14.84234767,.00080539,49.9863,244.4810,111.0431,249.1369,0,U,65560,999,4676,.94749371E-4,.573E-5,0
YAOGAN-45,2025-202A,2026-07-19T05:39:48.228768,5.31205814,.00080141,19.9367,197.9210,277.3221,82.5953,0,U,65563,999,1379,0,-.5E-7,0
PRAETORIAN SDA_602,2025-203A,2026-07-20T18:51:00.497088,13.83888594,.0007141,81.3051,339.6619,104.9124,255.2824,0,U,65565,999,4334,.63149E-4,.82E-6,0
PRAETORIAN SDA_603,2025-203B,2026-07-20T19:31:18.693984,13.83962179,.0010809,81.3057,339.5571,101.0429,259.1943,0,U,65566,999,4335,.45117E-4,.62E-6,0
PRAETORIAN SDA_604,2025-203C,2026-07-20T20:30:44.008128,13.83050859,.0006673,81.3073,339.9839,108.6980,251.4900,0,U,65567,999,4333,.7455E-4,.93E-6,0
PRAETORIAN SDA_605,2025-203D,2026-07-20T19:31:48.102816,13.83200878,.0009374,81.3038,339.6591,99.8901,260.3314,0,U,65568,999,4334,.75347E-4,.95E-6,0
PRAETORIAN SDA_606,2025-203E,2026-07-20T19:10:27.229728,13.83200288,.0007235,81.3074,339.9131,103.3556,256.8407,0,U,65569,999,4333,.28296E-4,.43E-6,0
PRAETORIAN SDA_607,2025-203F,2026-07-20T18:53:18.934080,13.83759000,.0010043,81.3060,339.5383,101.2715,258.9570,0,U,65570,999,4335,.73828E-4,.94E-6,0
PRAETORIAN SDA_608,2025-203G,2026-07-20T20:11:54.701376,13.83820114,.000715,81.3027,339.6491,107.2471,252.9468,0,U,65571,999,4334,.66725E-4,.86E-6,0
PRAETORIAN SDA_609,2025-203H,2026-07-20T20:05:15.622368,13.84212032,.0008011,81.3068,339.6304,101.8618,258.3438,0,U,65572,999,4335,.10728E-3,.132E-5,0
PRAETORIAN SDA_610,2025-203J,2026-07-20T19:47:33.247968,13.83529014,.0007875,81.3029,339.6304,106.6875,253.5146,0,U,65573,999,4334,.77948E-4,.98E-6,0
PRAETORIAN SDA_611,2025-203K,2026-07-20T20:01:39.609408,13.83311227,.0006776,81.3033,339.8063,111.0279,249.1603,0,U,65574,999,4333,.61582E-4,.8E-6,0
PRAETORIAN SDA_612,2025-203L,2026-07-20T20:30:15.986880,13.85041711,.0010395,81.3051,339.2913,101.3427,258.8899,0,U,65575,999,4337,.12131E-3,.149E-5,0
PRAETORIAN SDA_613,2025-203M,2026-07-20T20:30:24.378048,13.82768369,.0006823,81.3020,339.8105,102.3418,257.8502,0,U,65576,999,4333,.65653E-4,.83E-6,0
PRAETORIAN SDA_614,2025-203N,2026-07-20T20:23:50.544384,13.84778975,.000829,81.3034,339.3815,100.0571,260.1521,0,U,65577,999,4337,.4084E-4,.58E-6,0
PRAETORIAN SDA_615,2025-203P,2026-07-20T20:02:29.016384,13.84438928,.0010205,81.3042,339.3803,100.2786,259.9522,0,U,65578,999,4336,.10573E-3,.13E-5,0
PRAETORIAN SDA_616,2025-203Q,2026-07-20T20:01:58.181088,13.83270521,.0006658,81.3085,339.9732,109.0713,251.1165,0,U,65579,999,4333,.84501E-4,.105E-5,0
PRAETORIAN SDA_617,2025-203R,2026-07-20T18:53:02.702112,13.83152703,.0008534,81.3057,339.8457,100.5136,259.6982,0,U,65580,999,4333,.54442E-4,.72E-6,0
PRAETORIAN SDA_618,2025-203S,2026-07-20T19:16:42.591072,13.84226029,.0010964,81.3043,339.3441,103.4174,256.8206,0,U,65581,999,4336,.95998E-4,.119E-5,0
PRAETORIAN SDA_619,2025-203T,2026-07-20T20:27:25.574112,13.83806334,.0009367,81.3065,339.6317,101.0451,259.1759,0,U,65582,999,4398,.95215E-4,.117E-5,0
PRAETORIAN SDA_620,2025-203U,2026-07-20T19:37:19.572960,13.83208214,.0008633,81.3053,339.6995,98.5826,261.6309,0,U,65583,999,4334,.12348E-3,.147E-5,0
PRAETORIAN SDA_621,2025-203V,2026-07-20T20:30:04.932000,13.83804553,.0008523,81.3040,339.5605,95.6836,264.5292,0,U,65584,999,4335,.70218E-4,.9E-6,0
PRAETORIAN SDA_601,2025-203W,2026-07-20T20:09:59.125824,13.83170984,.0006722,81.3063,339.9088,112.1517,248.0353,0,U,65585,999,4333,-.6324E-4,-.57E-6,0
NUSANTARA LIMA (NUSANTARA 5),2025-205A,2026-07-20T13:03:38.941344,1.00269283,.000044,0.0123,83.5679,80.4522,83.0727,0,U,65588,999,305,0,0,0
COSMOS 2595 (MOZHAETS 6),2025-206A,2026-07-20T05:43:26.313600,2.14901288,.00656859,64.6172,313.6588,304.6538,54.7490,0,U,65589,999,666,0,-.83E-6,0
COSMOS 2596 [GLONASS-K1],2025-206B,2026-07-20T08:46:14.041056,2.13100962,.00112316,64.6129,313.8299,307.0990,98.2345,0,U,65590,999,662,0,-.85E-6,0
STARLINK-35267,2025-207A,2026-07-20T18:44:04.442208,15.05660173,.0001317,97.2831,267.4789,129.9450,230.1893,0,U,65592,999,4827,.173E-3,.2441E-4,0
STARLINK-35269,2025-207B,2026-07-20T17:56:13.981920,15.05662451,.0001247,97.2818,267.5293,136.5632,223.5694,0,U,65593,999,4827,.22713E-3,.3223E-4,0
STARLINK-35191,2025-207C,2026-07-20T18:20:10.046688,15.05654649,.0001641,97.2832,267.5062,119.9476,240.1915,0,U,65594,999,4811,.16708E-3,.2356E-4,0
